[{"OBJECT_NAME":"BNU-1 (JINGSHI 1)","OBJECT_ID":"2019-059B","EPOCH":"2026-03-09T22:44:13.004736","MEAN_MOTION":14.48293204,"ECCENTRICITY":0.00122993,"INCLINATION":98.5897,"RA_OF_ASC_NODE":196.2785,"ARG_OF_PERICENTER":317.1468,"MEAN_ANOMALY":42.8765,"EPHEMERIS_TYPE":0,"CLASSIFICATION_TYPE":"U","NORAD_CAT_ID":44529,"ELEMENT_SET_NO":999,"REV_AT_EPOCH":34262,"BSTAR":0.00022298879,"MEAN_MOTION_DOT":7.88e-6,"MEAN_MOTION_DDOT":0},{"OBJECT_NAME":"CZ-6A DEB","OBJECT_ID":"2024-140KA","EPOCH":"2026-03-09T15:13:29.801280","MEAN_MOTION":14.57491498,"ECCENTRICITY":0.0094362,"INCLINATION":89.06,"RA_OF_ASC_NODE":286.7494,"ARG_OF_PERICENTER":187.1333,"MEAN_ANOMALY":172.8543,"EPHEMERIS_TYPE":0,"CLASSIFICATION_TYPE":"U","NORAD_CAT_ID":60871,"ELEMENT_SET_NO":999,"REV_AT_EPOCH":8172,"BSTAR":0.00099553,"MEAN_MOTION_DOT":4.824e-5,"MEAN_MOTION_DDOT":0}]
